CCSDS_OMM_VERS = 2.0
CREATION_DATE  = 
ORIGINATOR     = 

OBJECT_NAME    = ATLAS CENTAUR 2
OBJECT_ID      = 1963-047A
CENTER_NAME    = EARTH
REF_FRAME      = TEME
TIME_SYSTEM    = UTC
MEAN_ELEMENT_THEORY = SGP/SGP4

EPOCH          = 2026-02-05T04:00:44.777952
MEAN_MOTION    = 14.11977027
ECCENTRICITY   = .054811
INCLINATION    = 30.3551
RA_OF_ASC_NODE = 17.3799
ARG_OF_PERICENTER = 153.7070
MEAN_ANOMALY   = 209.2462

EPHEMERIS_TYPE = 0
CLASSIFICATION_TYPE = U
NORAD_CAT_ID   = 694
ELEMENT_SET_NO = 999
REV_AT_EPOCH   = 12702
BSTAR          = .1959E-3
MEAN_MOTION_DOT = .1702E-4
MEAN_MOTION_DDOT = 0

CCSDS_OMM_VERS = 2.0
CREATION_DATE  = 
ORIGINATOR     = 

OBJECT_NAME    = THOR AGENA D R/B
OBJECT_ID      = 1964-002A
CENTER_NAME    = EARTH
REF_FRAME      = TEME
TIME_SYSTEM    = UTC
MEAN_ELEMENT_THEORY = SGP/SGP4

EPOCH          = 2026-02-05T11:54:15.829056
MEAN_MOTION    = 14.33999784
ECCENTRICITY   = .0032786
INCLINATION    = 99.1228
RA_OF_ASC_NODE = 48.0806
ARG_OF_PERICENTER = 354.0202
MEAN_ANOMALY   = 6.0585

EPHEMERIS_TYPE = 0
CLASSIFICATION_TYPE = U
NORAD_CAT_ID   = 733
ELEMENT_SET_NO = 999
REV_AT_EPOCH   = 23368
BSTAR          = .13692E-3
MEAN_MOTION_DOT = .336E-5
MEAN_MOTION_DDOT = 0

CCSDS_OMM_VERS = 2.0
CREATION_DATE  = 
ORIGINATOR     = 

OBJECT_NAME    = SL-3 R/B
OBJECT_ID      = 1964-053B
CENTER_NAME    = EARTH
REF_FRAME      = TEME
TIME_SYSTEM    = UTC
MEAN_ELEMENT_THEORY = SGP/SGP4

EPOCH          = 2026-02-05T11:01:01.244352
MEAN_MOTION    = 14.61333910
ECCENTRICITY   = .0078127
INCLINATION    = 65.0763
RA_OF_ASC_NODE = 65.7277
ARG_OF_PERICENTER = 302.4608
MEAN_ANOMALY   = 56.8954

EPHEMERIS_TYPE = 0
CLASSIFICATION_TYPE = U
NORAD_CAT_ID   = 877
ELEMENT_SET_NO = 999
REV_AT_EPOCH   = 26208
BSTAR          = .1194E-3
MEAN_MOTION_DOT = .492E-5
MEAN_MOTION_DDOT = 0

CCSDS_OMM_VERS = 2.0
CREATION_DATE  = 
ORIGINATOR     = 

OBJECT_NAME    = SL-8 R/B
OBJECT_ID      = 1967-045B
CENTER_NAME    = EARTH
REF_FRAME      = TEME
TIME_SYSTEM    = UTC
MEAN_ELEMENT_THEORY = SGP/SGP4

EPOCH          = 2026-02-05T07:50:07.350144
MEAN_MOTION    = 14.45591152
ECCENTRICITY   = .0062975
INCLINATION    = 74.0099
RA_OF_ASC_NODE = 48.5274
ARG_OF_PERICENTER = 63.0373
MEAN_ANOMALY   = 297.7197

EPHEMERIS_TYPE = 0
CLASSIFICATION_TYPE = U
NORAD_CAT_ID   = 2802
ELEMENT_SET_NO = 999
REV_AT_EPOCH   = 8434
BSTAR          = .11069E-3
MEAN_MOTION_DOT = .373E-5
MEAN_MOTION_DDOT = 0

CCSDS_OMM_VERS = 2.0
CREATION_DATE  = 
ORIGINATOR     = 

OBJECT_NAME    = SL-8 R/B
OBJECT_ID      = 1968-040B
CENTER_NAME    = EARTH
REF_FRAME      = TEME
TIME_SYSTEM    = UTC
MEAN_ELEMENT_THEORY = SGP/SGP4

EPOCH          = 2026-02-05T08:43:09.989184
MEAN_MOTION    = 15.03007419
ECCENTRICITY   = .0025496
INCLINATION    = 74.0321
RA_OF_ASC_NODE = 19.7299
ARG_OF_PERICENTER = 212.9204
MEAN_ANOMALY   = 147.0398

EPHEMERIS_TYPE = 0
CLASSIFICATION_TYPE = U
NORAD_CAT_ID   = 3230
ELEMENT_SET_NO = 999
REV_AT_EPOCH   = 8515
BSTAR          = .4392E-3
MEAN_MOTION_DOT = .5915E-4
MEAN_MOTION_DDOT = 0

CCSDS_OMM_VERS = 2.0
CREATION_DATE  = 
ORIGINATOR     = 

OBJECT_NAME    = OAO 2
OBJECT_ID      = 1968-110A
CENTER_NAME    = EARTH
REF_FRAME      = TEME
TIME_SYSTEM    = UTC
MEAN_ELEMENT_THEORY = SGP/SGP4

EPOCH          = 2026-02-05T11:55:10.927200
MEAN_MOTION    = 14.47287932
ECCENTRICITY   = .0006048
INCLINATION    = 34.9935
RA_OF_ASC_NODE = 84.9597
ARG_OF_PERICENTER = 297.3051
MEAN_ANOMALY   = 62.7024

EPHEMERIS_TYPE = 0
CLASSIFICATION_TYPE = U
NORAD_CAT_ID   = 3597
ELEMENT_SET_NO = 999
REV_AT_EPOCH   = 1443
BSTAR          = .1208E-3
MEAN_MOTION_DOT = .429E-5
MEAN_MOTION_DDOT = 0

CCSDS_OMM_VERS = 2.0
CREATION_DATE  = 
ORIGINATOR     = 

OBJECT_NAME    = ISIS 1
OBJECT_ID      = 1969-009A
CENTER_NAME    = EARTH
REF_FRAME      = TEME
TIME_SYSTEM    = UTC
MEAN_ELEMENT_THEORY = SGP/SGP4

EPOCH          = 2026-02-05T07:46:08.510304
MEAN_MOTION    = 11.30399721
ECCENTRICITY   = .1707836
INCLINATION    = 88.4552
RA_OF_ASC_NODE = 158.8352
ARG_OF_PERICENTER = 154.4669
MEAN_ANOMALY   = 215.1808

EPHEMERIS_TYPE = 0
CLASSIFICATION_TYPE = U
NORAD_CAT_ID   = 3669
ELEMENT_SET_NO = 999
REV_AT_EPOCH   = 34487
BSTAR          = .32132E-3
MEAN_MOTION_DOT = .467E-5
MEAN_MOTION_DDOT = 0

CCSDS_OMM_VERS = 2.0
CREATION_DATE  = 
ORIGINATOR     = 

OBJECT_NAME    = SERT 2
OBJECT_ID      = 1970-009A
CENTER_NAME    = EARTH
REF_FRAME      = TEME
TIME_SYSTEM    = UTC
MEAN_ELEMENT_THEORY = SGP/SGP4

EPOCH          = 2026-02-05T07:37:04.521216
MEAN_MOTION    = 13.58726405
ECCENTRICITY   = .0003995
INCLINATION    = 99.2719
RA_OF_ASC_NODE = 341.1899
ARG_OF_PERICENTER = 245.0591
MEAN_ANOMALY   = 269.1740

EPHEMERIS_TYPE = 0
CLASSIFICATION_TYPE = U
NORAD_CAT_ID   = 4327
ELEMENT_SET_NO = 999
REV_AT_EPOCH   = 77549
BSTAR          = .12228E-3
MEAN_MOTION_DOT = .48E-6
MEAN_MOTION_DDOT = 0

CCSDS_OMM_VERS = 2.0
CREATION_DATE  = 
ORIGINATOR     = 

OBJECT_NAME    = SL-3 R/B
OBJECT_ID      = 1971-028B
CENTER_NAME    = EARTH
REF_FRAME      = TEME
TIME_SYSTEM    = UTC
MEAN_ELEMENT_THEORY = SGP/SGP4

EPOCH          = 2026-02-05T10:50:00.917664
MEAN_MOTION    = 15.58600988
ECCENTRICITY   = .0017683
INCLINATION    = 81.2353
RA_OF_ASC_NODE = 91.7738
ARG_OF_PERICENTER = 47.8527
MEAN_ANOMALY   = 312.4223

EPHEMERIS_TYPE = 0
CLASSIFICATION_TYPE = U
NORAD_CAT_ID   = 5118
ELEMENT_SET_NO = 999
REV_AT_EPOCH   = 98364
BSTAR          = .59263E-3
MEAN_MOTION_DOT = .45937E-3
MEAN_MOTION_DDOT = 0

CCSDS_OMM_VERS = 2.0
CREATION_DATE  = 
ORIGINATOR     = 

OBJECT_NAME    = ASTEX 1
OBJECT_ID      = 1971-089A
CENTER_NAME    = EARTH
REF_FRAME      = TEME
TIME_SYSTEM    = UTC
MEAN_ELEMENT_THEORY = SGP/SGP4

EPOCH          = 2026-02-05T06:23:27.481056
MEAN_MOTION    = 14.50730504
ECCENTRICITY   = .0015311
INCLINATION    = 92.7153
RA_OF_ASC_NODE = 141.2692
ARG_OF_PERICENTER = 185.9954
MEAN_ANOMALY   = 174.1072

EPHEMERIS_TYPE = 0
CLASSIFICATION_TYPE = U
NORAD_CAT_ID   = 5560
ELEMENT_SET_NO = 999
REV_AT_EPOCH   = 85760
BSTAR          = .21772E-3
MEAN_MOTION_DOT = .856E-5
MEAN_MOTION_DDOT = 0

CCSDS_OMM_VERS = 2.0
CREATION_DATE  = 
ORIGINATOR     = 

OBJECT_NAME    = SL-8 R/B
OBJECT_ID      = 1971-119B
CENTER_NAME    = EARTH
REF_FRAME      = TEME
TIME_SYSTEM    = UTC
MEAN_ELEMENT_THEORY = SGP/SGP4

EPOCH          = 2026-02-05T12:00:54.964224
MEAN_MOTION    = 14.36883882
ECCENTRICITY   = .0554222
INCLINATION    = 73.8849
RA_OF_ASC_NODE = 235.8447
ARG_OF_PERICENTER = 209.0767
MEAN_ANOMALY   = 147.8461

EPHEMERIS_TYPE = 0
CLASSIFICATION_TYPE = U
NORAD_CAT_ID   = 5730
ELEMENT_SET_NO = 999
REV_AT_EPOCH   = 65086
BSTAR          = .69273E-3
MEAN_MOTION_DOT = .13355E-3
MEAN_MOTION_DDOT = 0

CCSDS_OMM_VERS = 2.0
CREATION_DATE  = 
ORIGINATOR     = 

OBJECT_NAME    = OAO 3 (COPERNICUS)
OBJECT_ID      = 1972-065A
CENTER_NAME    = EARTH
REF_FRAME      = TEME
TIME_SYSTEM    = UTC
MEAN_ELEMENT_THEORY = SGP/SGP4

EPOCH          = 2026-02-05T12:24:42.392448
MEAN_MOTION    = 14.59968967
ECCENTRICITY   = .0007245
INCLINATION    = 35.0054
RA_OF_ASC_NODE = 120.6090
ARG_OF_PERICENTER = 259.4321
MEAN_ANOMALY   = 117.4421

EPHEMERIS_TYPE = 0
CLASSIFICATION_TYPE = U
NORAD_CAT_ID   = 6153
ELEMENT_SET_NO = 999
REV_AT_EPOCH   = 84149
BSTAR          = .12759E-3
MEAN_MOTION_DOT = .6E-5
MEAN_MOTION_DDOT = 0

