ATLAS CENTAUR 2         
1 00694U 63047A   26036.16718493  .00001702  00000+0  19590-3 0  9991
2 00694  30.3551  17.3799 0548110 153.7070 209.2462 14.11977027127022
THOR AGENA D R/B        
1 00733U 64002A   26036.49601654  .00000336  00000+0  13692-3 0  9992
2 00733  99.1228  48.0806 0032786 354.0202   6.0585 14.33999784233687
SL-3 R/B                
1 00877U 64053B   26036.45904218  .00000492  00000+0  11940-3 0  9992
2 00877  65.0763  65.7277 0078127 302.4608  56.8954 14.61333910262089
SL-8 R/B                
1 02802U 67045B   26036.32647396  .00000373  00000+0  11069-3 0  9993
2 02802  74.0099  48.5274 0062975  63.0373 297.7197 14.45591152 84342
SL-8 R/B                
1 03230U 68040B   26036.36331006  .00005915  00000+0  43920-3 0  9995
2 03230  74.0321  19.7299 0025496 212.9204 147.0398 15.03007419 85151
OAO 2                   
1 03597U 68110A   26036.49665425  .00000429  00000+0  12080-3 0  9996
2 03597  34.9935  84.9597 0006048 297.3051  62.7024 14.47287932 14436
ISIS 1                  
1 03669U 69009A   26036.32370961  .00000467  00000+0  32132-3 0  9996
2 03669  88.4552 158.8352 1707836 154.4669 215.1808 11.30399721344874
SERT 2                  
1 04327U 70009A   26036.31741344  .00000048  00000+0  12228-3 0  9995
2 04327  99.2719 341.1899 0003995 245.0591 269.1740 13.58726405775494
SL-3 R/B                
1 05118U 71028B   26036.45139951  .00045937  00000+0  59263-3 0  9992
2 05118  81.2353  91.7738 0017683  47.8527 312.4223 15.58600988983649
ASTEX 1                 
1 05560U 71089A   26036.26629029  .00000856  00000+0  21772-3 0  9994
2 05560  92.7153 141.2692 0015311 185.9954 174.1072 14.50730504857609
SL-8 R/B                
1 05730U 71119B   26036.50063616  .00013355  00000+0  69273-3 0  9994
2 05730  73.8849 235.8447 0554222 209.0767 147.8461 14.36883882650867
OAO 3 (COPERNICUS)      
1 06153U 72065A   26036.51715732  .00000600  00000+0  12759-3 0  9995
2 06153  35.0054 120.6090 0007245 259.4321 117.4421 14.59968967841496
